#Pass ID: 20250129_110800_NOAA 20 (JPSS-1)
#Satellite: NOAA 20 (JPSS-1)
#Configuration: NOAA 20 (JPSS-1)
#Start time: 2025-01-29 11:08:05.669945

#LorettStation: 1.0.0 05.05.2024
#Station: Regia
#Location: 37.494653 lon 55.929028 lat
#TLE: 1 43013U 17073A   25028.89189494  .00000213  00000+0  12200-3 0  9991
#TLE: 2 43013  98.7299 329.2504 0000542   5.3300 354.7882 14.19546093372926

#Time	Az	El	Level	SNR
#Closed at: 2025-01-29 11:08:00.671889